[{"OBJECT_NAME":"OBJECT C","OBJECT_ID":"2024-085C","EPOCH":"2026-03-09T22:49:58.289376","MEAN_MOTION":15.31893958,"ECCENTRICITY":0.00283931,"INCLINATION":97.3357,"RA_OF_ASC_NODE":145.6975,"ARG_OF_PERICENTER":37.3887,"MEAN_ANOMALY":322.9323,"EPHEMERIS_TYPE":0,"CLASSIFICATION_TYPE":"U","NORAD_CAT_ID":59679,"ELEMENT_SET_NO":999,"REV_AT_EPOCH":10244,"BSTAR":0.00039740634,"MEAN_MOTION_DOT":0.0001232,"MEAN_MOTION_DDOT":0},{"OBJECT_NAME":"STARLINK-32691","OBJECT_ID":"2025-003Q","EPOCH":"2026-03-09T23:05:22.700256","MEAN_MOTION":15.27604405,"ECCENTRICITY":5.889e-5,"INCLINATION":43.0004,"RA_OF_ASC_NODE":287.389,"ARG_OF_PERICENTER":6.0113,"MEAN_ANOMALY":354.0745,"EPHEMERIS_TYPE":0,"CLASSIFICATION_TYPE":"U","NORAD_CAT_ID":62501,"ELEMENT_SET_NO":999,"REV_AT_EPOCH":6670,"BSTAR":0.0012775534,"MEAN_MOTION_DOT":0.00035087,"MEAN_MOTION_DDOT":0}]
